[{"OBJECT_NAME":"NETSAT-1","OBJECT_ID":"2020-068W","EPOCH":"2026-03-09T22:42:38.711232","MEAN_MOTION":15.32042482,"ECCENTRICITY":0.00057337,"INCLINATION":97.8751,"RA_OF_ASC_NODE":63.2583,"ARG_OF_PERICENTER":18.5877,"MEAN_ANOMALY":341.5572,"EPHEMERIS_TYPE":0,"CLASSIFICATION_TYPE":"U","NORAD_CAT_ID":46506,"ELEMENT_SET_NO":999,"REV_AT_EPOCH":30009,"BSTAR":0.00059222329,"MEAN_MOTION_DOT":0.00018269,"MEAN_MOTION_DDOT":0},{"OBJECT_NAME":"STARLINK-35576","OBJECT_ID":"2025-237Z","EPOCH":"2026-03-09T03:51:28.979712","MEAN_MOTION":15.30216265,"ECCENTRICITY":0.0001302,"INCLINATION":53.1601,"RA_OF_ASC_NODE":41.7857,"ARG_OF_PERICENTER":116.5892,"MEAN_ANOMALY":243.5243,"EPHEMERIS_TYPE":0,"CLASSIFICATION_TYPE":"U","NORAD_CAT_ID":66137,"ELEMENT_SET_NO":999,"REV_AT_EPOCH":2253,"BSTAR":0.0011853456,"MEAN_MOTION_DOT":0.0003493,"MEAN_MOTION_DDOT":0}]
